NORAD_CAT_ID,OBJECT_NAME,OBJECT_TYPE,EPOCH,MEAN_MOTION,ECCENTRICITY,INCLINATION,RA_OF_ASC_NODE,ARG_OF_PERICENTER,MEAN_ANOMALY,BSTAR,MEAN_MOTION_DOT,MEAN_MOTION_DDOT,TLE_LINE0,TLE_LINE1,TLE_LINE2,SEMIMAJOR_AXIS,PERIOD,APOGEE,PERIGEE,DECAYED
50202.0,STARLINK-3256,PAYLOAD,2022-06-07 11:40:17,15.08863029,0.0001891,53.2167,274.6897,35.4948,324.617,-0.00036296,-6.064e-05,0.0,0 STARLINK-3256,1 50202U 21125AY  22158.48631035 -.00006064  00000-0 -36296-3 0  9995,2 50202  53.2167 274.6897 0001891  35.4948 324.6170 15.08863029 29725,6917.81,95.436,540.9830000000002,538.367,0.0
50202.0,STARLINK-3256,PAYLOAD,2022-06-07 16:26:26,15.08851164,0.0001865,53.217,273.7977,42.7496,317.3641,-0.0002439,-4.169e-05,0.0,0 STARLINK-3256,1 50202U 21125AY  22158.68503087 -.00004169  00000-0 -24390-3 0  9998,2 50202  53.2170 273.7977 0001865  42.7496 317.3641 15.08851164 29750,6917.846,95.437,541.001,538.4209999999998,0.0
50202.0,STARLINK-3256,PAYLOAD,2022-06-08 11:31:04,15.08832995,0.000191,53.2169,270.2295,39.3523,320.7608,-3.6556e-06,-3.46e-06,0.0,0 STARLINK-3256,1 50202U 21125AY  22159.47991566 -.00000346  00000-0 -36556-5 0  9991,2 50202  53.2169 270.2295 0001910  39.3523 320.7608 15.08832995 29399,6917.901999999999,95.438,541.0880000000002,538.445,0.0
50202.0,STARLINK-3256,PAYLOAD,2022-06-08 16:17:14,15.08830495,0.0001895,53.2169,269.3372,40.2109,319.9023,-4.8548e-05,-1.061e-05,0.0,0 STARLINK-3256,1 50202U 21125AY  22159.67863977 -.00001061  00000-0 -48548-4 0  9995,2 50202  53.2169 269.3372 0001895  40.2109 319.9023 15.08830495 29908,6917.909000000002,95.438,541.085,538.4630000000002,0.0
50202.0,STARLINK-3256,PAYLOAD,2022-06-09 09:46:28,15.08832701,0.0001684,53.2169,266.0655,41.5795,318.5325,1.1407e-05,-1.07e-06,0.0,0 STARLINK-3256,1 50202U 21125AY  22160.40727843 -.00000107  00000-0  11407-4 0  9992,2 50202  53.2169 266.0655 0001684  41.5795 318.5325 15.08832701 30013,6917.903,95.438,540.933,538.6030000000002,0.0
50202.0,STARLINK-3256,PAYLOAD,2022-06-09 16:08:01,15.08838153,0.0001842,53.2169,264.8768,42.2728,317.8406,6.2967e-05,7.14e-06,0.0,0 STARLINK-3256,1 50202U 21125AY  22160.67223435  .00000714  00000-0  62967-4 0  9999,2 50202  53.2169 264.8768 0001842  42.2728 317.8406 15.08838153 29572,6917.886,95.438,541.025,538.477,0.0
50202.0,STARLINK-3256,PAYLOAD,2022-06-10 09:37:15,15.08835804,0.0001975,53.2168,261.6052,42.154,317.9604,7.774899999999999e-05,9.49e-06,0.0,0 STARLINK-3256,1 50202U 21125AY  22161.40087579  .00000949  00000-0  77749-4 0  9992,2 50202  53.2168 261.6052 0001975  42.1540 317.9604 15.08835804 30168,6917.893,95.438,541.124,538.3919999999998,0.0
50202.0,STARLINK-3256,PAYLOAD,2022-06-10 17:34:11,15.08833031,0.0001942,53.2167,260.1182,41.4709,318.6431,4.1367e-05,3.700000000000001e-06,0.0,0 STARLINK-3256,1 50202U 21125AY  22161.73207977  .00000370  00000-0  41367-4 0  9999,2 50202  53.2167 260.1182 0001942  41.4709 318.6431 15.08833031 29735,6917.901999999999,95.438,541.11,538.423,0.0
50202.0,STARLINK-3256,PAYLOAD,2022-06-11 12:38:48,15.08848212,0.0001913,53.2165,256.5503,40.2764,319.8369,4.172899999999999e-05,3.76e-06,0.0,0 STARLINK-3256,1 50202U 21125AY  22162.52695019  .00000376  00000-0  41729-4 0  9993,2 50202  53.2165 256.5503 0001913  40.2764 319.8369 15.08848212 29858,6917.855,95.437,541.044,538.3969999999998,0.0
50202.0,STARLINK-3256,PAYLOAD,2022-06-11 17:24:57,15.08849254,0.0001953,53.2165,255.6582,41.37600000000001,318.738,5.1359e-05,5.29e-06,0.0,0 STARLINK-3256,1 50202U 21125AY  22162.72566813  .00000529  00000-0  51359-4 0  9994,2 50202  53.2165 255.6582 0001953  41.3760 318.7380 15.08849254 30363,6917.852,95.437,541.068,538.366,0.0
50202.0,STARLINK-3256,PAYLOAD,2022-06-11 23:46:31,15.088390099999998,0.00022,53.2168,254.4681,41.5409,318.575,-2.1842e-05,-6.36e-06,0.0,0 STARLINK-3256,1 50202U 21125AY  22162.99063723 -.00000636  00000-0 -21842-4 0  9990,2 50202  53.2168 254.4681 0002200  41.5409 318.5750 15.08839010 29929,6917.8830000000025,95.438,541.27,538.226,0.0
50202.0,STARLINK-3256,PAYLOAD,2022-06-12 12:29:35,15.08841234,0.0001926,53.2164,252.0898,39.6064,320.5069,5.3161e-05,5.58e-06,0.0,0 STARLINK-3256,1 50202U 21125AY  22163.52055157  .00000558  00000-0  53161-4 0  9992,2 50202  53.2164 252.0898 0001926  39.6064 320.5069 15.08841234 30488,6917.877,95.437,541.0740000000002,538.409,0.0
50202.0,STARLINK-3256,PAYLOAD,2022-06-12 15:40:22,15.08833649,0.0002061,53.2156,251.4952,29.3221,330.7886,0.00015733,2.216e-05,0.0,0 STARLINK-3256,1 50202U 21125AY  22163.65303299  .00002216  00000-0  15733-3 0  9994,2 50202  53.2156 251.4952 0002061  29.3221 330.7886 15.08833649 30509,6917.9,95.438,541.191,538.339,0.0
50202.0,STARLINK-3256,PAYLOAD,2022-06-13 12:20:22,15.08846151,0.0002011,53.2162,247.6296,41.4085,318.7059,1.2427e-05,-9.000000000000002e-07,0.0,0 STARLINK-3256,1 50202U 21125AY  22164.51414743 -.00000090  00000-0  12427-4 0  9994,2 50202  53.2162 247.6296 0002011  41.4085 318.7059 15.08846151 30153,6917.861999999999,95.437,541.118,538.335,0.0
50202.0,STARLINK-3256,PAYLOAD,2022-06-13 15:31:08,15.08847859,0.0002018,53.2164,247.0351,40.3109,319.8033,5.2442e-06,-2.05e-06,0.0,0 STARLINK-3256,1 50202U 21125AY  22164.64662600 -.00000205  00000-0  52442-5 0  9995,2 50202  53.2164 247.0351 0002018  40.3109 319.8033 15.08847859 30658,6917.856,95.437,541.117,538.325,0.0
50202.0,STARLINK-3256,PAYLOAD,2022-06-14 12:11:10,15.08832089,0.0001992,53.2169,243.1691,40.1667,319.9472,-4.883600000000001e-05,-1.065e-05,0.0,0 STARLINK-3256,1 50202U 21125AY  22165.50775761 -.00001065  00000-0 -48836-4 0  9991,2 50202  53.2169 243.1691 0001992  40.1667 319.9472 15.08832089 30303,6917.905,95.438,541.148,538.3919999999998,0.0
50202.0,STARLINK-3256,PAYLOAD,2022-06-15 12:01:58,15.08826603,0.0002002,53.2159,238.7082,37.2986,322.8145,-0.00012655,-2.301e-05,0.0,0 STARLINK-3256,1 50202U 21125AY  22166.50136801 -.00002301  00000-0 -12655-3 0  9991,2 50202  53.2159 238.7082 0002002  37.2986 322.8145 15.08826603 30934,6917.920999999999,95.438,541.1709999999998,538.401,0.0
50202.0,STARLINK-3256,PAYLOAD,2022-06-15 21:34:16,15.08831852,0.0002048,53.2162,236.9241,39.403,320.7111,-7.9776e-05,-1.557e-05,0.0,0 STARLINK-3256,1 50202U 21125AY  22166.89880606 -.00001557  00000-0 -79776-4 0  9992,2 50202  53.2162 236.9241 0002048  39.4030 320.7111 15.08831852 30997,6917.905,95.438,541.187,538.354,0.0
50202.0,STARLINK-3256,PAYLOAD,2022-06-19 09:49:42,15.08841199,0.0002167,53.2151,221.1634,40.9114,319.204,5.0426e-05,5.14e-06,0.0,0 STARLINK-3256,1 50202U 21125AY  22170.40952253  .00000514  00000-0  50426-4 0  9993,2 50202  53.2151 221.1634 0002167  40.9114 319.2040 15.08841199 31528,6917.877,95.437,541.241,538.243,0.0
50202.0,STARLINK-3256,PAYLOAD,2022-06-19 13:00:29,15.08840352,0.0002172,53.2153,220.5689,40.4118,319.7035,3.9197e-05,3.36e-06,0.0,0 STARLINK-3256,1 50202U 21125AY  22170.54200323  .00000336  00000-0  39197-4 0  9996,2 50202  53.2153 220.5689 0002172  40.4118 319.7035 15.08840352 31066,6917.879,95.438,541.247,538.242,0.0
50202.0,STARLINK-3256,PAYLOAD,2022-06-19 20:57:24,15.08842842,0.00022,53.2153,219.0823,40.6821,319.4335,3.5767e-05,2.81e-06,0.0,0 STARLINK-3256,1 50202U 21125AY  22170.87320107  .00000281  00000-0  35767-4 0  9993,2 50202  53.2153 219.0823 0002200  40.6821 319.4335 15.08842842 31598,6917.871999999999,95.437,541.259,538.215,0.0
50202.0,STARLINK-3256,PAYLOAD,2022-06-20 09:40:30,15.08838404,0.0002196,53.2158,216.703,43.2225,316.8939,-4.905e-05,-1.069e-05,0.0,0 STARLINK-3256,1 50202U 21125AY  22171.40312611 -.00001069  00000-0 -49050-4 0  9991,2 50202  53.2158 216.7030 0002196  43.2225 316.8939 15.08838404 31677,6917.885,95.438,541.269,538.231,0.0
50202.0,STARLINK-3256,PAYLOAD,2022-06-20 12:51:16,15.08838005,0.0002195,53.2162,216.1087,41.9845,318.1315,-8.0487e-05,-1.569e-05,0.0,0 STARLINK-3256,1 50202U 21125AY  22171.53560747 -.00001569  00000-0 -80487-4 0  9994,2 50202  53.2162 216.1087 0002195  41.9845 318.1315 15.08838005 31210,6917.886,95.438,541.27,538.2330000000002,0.0
50202.0,STARLINK-3256,PAYLOAD,2022-06-21 03:09:44,15.08841438,0.0002187,53.2164,213.4328,41.4322,318.6836,3.2141e-05,2.23e-06,0.0,0 STARLINK-3256,1 50202U 21125AY  22172.13176080  .00000223  00000-0  32141-4 0  9992,2 50202  53.2164 213.4328 0002187  41.4322 318.6836 15.08841438 31303,6917.876,95.437,541.254,538.2280000000002,0.0
50202.0,STARLINK-3256,PAYLOAD,2022-06-21 19:03:36,15.08832496,0.0002215,53.2166,210.4596,41.3473,318.7686,-8.6586e-05,-1.666e-05,0.0,0 STARLINK-3256,1 50202U 21125AY  22172.79417151 -.00001666  00000-0 -86586-4 0  9997,2 50202  53.2166 210.4596 0002215  41.3473 318.7686 15.08832496 31406,6917.903,95.438,541.3009999999998,538.236,0.0
50202.0,STARLINK-3256,PAYLOAD,2022-06-22 01:25:09,15.08826218,0.000216,53.2157,209.2689,35.0742,325.0392,-2.0913e-05,-6.21e-06,0.0,0 STARLINK-3256,1 50202U 21125AY  22173.05913355 -.00000621  00000-0 -20913-4 0  9996,2 50202  53.2157 209.2689 0002160  35.0742 325.0392 15.08826218 31920,6917.9230000000025,95.438,541.2819999999998,538.293,0.0
50202.0,STARLINK-3256,PAYLOAD,2022-06-22 18:54:23,15.0883066,0.0002214,53.2147,205.9973,37.178,322.9365,1.0269e-05,-1.25e-06,0.0,0 STARLINK-3256,1 50202U 21125AY  22173.78777416 -.00000125  00000-0  10269-4 0  9993,2 50202  53.2147 205.9973 0002214  37.1780 322.9365 15.08830660 32038,6917.909000000002,95.438,541.306,538.242,0.0
50202.0,STARLINK-3256,PAYLOAD,2022-06-23 02:51:19,15.08835149,0.0002214,53.2156,204.5112,32.398,327.7147,-2.5097e-05,-6.88e-06,0.0,0 STARLINK-3256,1 50202U 21125AY  22174.11897392 -.00000688  00000-0 -25097-4 0  9997,2 50202  53.2156 204.5112 0002214  32.3980 327.7147 15.08835149 31607,6917.895,95.438,541.2919999999998,538.229,0.0
50202.0,STARLINK-3256,PAYLOAD,2022-06-23 09:12:51,15.08837136,0.0002223,53.2156,203.3219,32.9521,327.1609,-5.3369000000000005e-06,-3.73e-06,0.0,0 STARLINK-3256,1 50202U 21125AY  22174.38393273 -.00000373  00000-0 -53369-5 0  9990,2 50202  53.2156 203.3219 0002223  32.9521 327.1609 15.08837136 32122,6917.889,95.438,541.2919999999998,538.216,0.0
